{
"type": "FeatureCollection",
"name": "hv_boundary",
"crs": { "type": "name", "properties": { "name": "urn:ogc:def:crs:OGC:1.3:CRS84" } },
"features": [
{ "type": "Feature", "properties": { "Id": 0 }, "geometry": { "type": "Polygon", "coordinates": [ [ [ 26.542978863383869, -33.559455716907756 ], [ 26.539311824681043, -33.566285574119895 ], [ 26.535887564259696, -33.572663260301198 ], [ 26.559987886032165, -33.583671901037356 ], [ 26.5604940820363, -33.58381227531622 ], [ 26.56053378890325, -33.583823285716015 ], [ 26.560565472918306, -33.583868744646765 ], [ 26.560590056489929, -33.583904017911962 ], [ 26.560675680823596, -33.584263640113846 ], [ 26.560793108481416, -33.584371282133503 ], [ 26.561025517387225, -33.58445201364831 ], [ 26.561435290802514, -33.584699326279214 ], [ 26.56138235215829, -33.585325766900993 ], [ 26.578976159135813, -33.606454924726144 ], [ 26.540187881540454, -33.617252271722279 ], [ 26.539767162996807, -33.616726373542789 ], [ 26.538873136091855, -33.616516014271006 ], [ 26.538505007366307, -33.616778963360801 ], [ 26.536611773920381, -33.617515220811896 ], [ 26.533982283023448, -33.616936732814658 ], [ 26.531826100487731, -33.61719968190436 ], [ 26.529249199408543, -33.616673783724863 ], [ 26.528092223413889, -33.616884142996732 ], [ 26.52767150487033, -33.617041912450503 ], [ 26.526724888147367, -33.618514427352956 ], [ 26.527198196508937, -33.619461044075742 ], [ 26.529249199408543, -33.620039532073157 ], [ 26.530458765221208, -33.621038738614047 ], [ 26.530563944857231, -33.622037945154929 ], [ 26.530563944857231, -33.623615639693142 ], [ 26.529932867041893, -33.624351897144415 ], [ 26.528144813231723, -33.625140744413436 ], [ 26.52640934923992, -33.625140744413436 ], [ 26.52640934923992, -33.625877001864616 ], [ 26.528092223413889, -33.626087361136399 ], [ 26.5294069688624, -33.626981388041351 ], [ 26.529196609590798, -33.62750728622084 ], [ 26.528092223413889, -33.628453902943804 ], [ 26.524095397250434, -33.632345549471417 ], [ 26.521045187809854, -33.63329216619438 ], [ 26.516678129327818, -33.634529078712298 ], [ 26.509239825478158, -33.636649500171693 ], [ 26.507455978853699, -33.63708704745703 ], [ 26.504898010234999, -33.637322650220106 ], [ 26.504595093388904, -33.637087046729789 ], [ 26.504288931118257, -33.637087047166155 ], [ 26.503995914679766, -33.637032542417884 ], [ 26.503843894180378, -33.636971592664814 ], [ 26.502898377558136, -33.636458312700952 ], [ 26.502878561100239, -33.636447555270806 ], [ 26.502878561100239, -33.635909035535157 ], [ 26.502844903616595, -33.63537051579933 ], [ 26.502541986265303, -33.635067598448039 ], [ 26.501902494079076, -33.634731023613192 ], [ 26.500589852223332, -33.633889586526251 ], [ 26.49988304507017, -33.633620326658246 ], [ 26.499546470235412, -33.634024216460119 ], [ 26.498772348115228, -33.634495421228834 ], [ 26.49872355105115, -33.6345930153553 ], [ 26.498425787320322, -33.635013306318932 ], [ 26.498042282225619, -33.635180571226371 ], [ 26.497043764957816, -33.635599344134363 ], [ 26.496816569229363, -33.635679316347307 ], [ 26.496214379370585, -33.635875378051686 ], [ 26.496081795533165, -33.635875378051686 ], [ 26.496146525741647, -33.635866656820752 ], [ 26.495807282580085, -33.635854864010732 ], [ 26.495657002268867, -33.635932611300937 ], [ 26.493824698043365, -33.636615842688229 ], [ 26.49305057592327, -33.637389964808321 ], [ 26.491502331682991, -33.637221677390897 ], [ 26.491450285802141, -33.637239025860318 ], [ 26.491432079027298, -33.637236547328804 ], [ 26.49060035991878, -33.637477589019412 ], [ 26.492108166385751, -33.627023459895703 ], [ 26.492477013903081, -33.618468079338378 ], [ 26.493132429018416, -33.603819820228424 ], [ 26.493609484290324, -33.592376223283978 ], [ 26.493798922882071, -33.58780659080152 ], [ 26.493798933673883, -33.587806337192653 ], [ 26.494014381558483, -33.58280903840641 ], [ 26.494234090431, -33.577712937402111 ], [ 26.494247516409818, -33.577401516566681 ], [ 26.494351374616297, -33.574992542172048 ], [ 26.4943904789375, -33.574085512036696 ], [ 26.494475856075926, -33.572808419872587 ], [ 26.494587767711351, -33.569735922974438 ], [ 26.494631544010559, -33.569735844733465 ], [ 26.500329599031801, -33.570202529023433 ], [ 26.502962053156264, -33.570477288995633 ], [ 26.502980970395505, -33.57041968202266 ], [ 26.502998311123203, -33.57042110205218 ], [ 26.503486841744405, -33.568955506591273 ], [ 26.503719475673325, -33.566373268811319 ], [ 26.503554891644963, -33.565365190850834 ], [ 26.503538668774539, -33.565249899563206 ], [ 26.503744394088567, -33.564903958250987 ], [ 26.50448716849748, -33.563744504045005 ], [ 26.505557285180746, -33.562674387361653 ], [ 26.506379512004884, -33.562256534011773 ], [ 26.506976353376054, -33.561953222363265 ], [ 26.507735107789042, -33.561727646313784 ], [ 26.508697844629868, -33.561441427180057 ], [ 26.508738075801595, -33.561420418117741 ], [ 26.508742054402333, -33.561419198637047 ], [ 26.508814788871447, -33.561380356917873 ], [ 26.510791551788714, -33.560348046724904 ], [ 26.512032421059427, -33.560221662299845 ], [ 26.513303998580749, -33.560092149133339 ], [ 26.514964628215086, -33.560140991313595 ], [ 26.51646782266933, -33.560185202902652 ], [ 26.517117730199079, -33.56036194484782 ], [ 26.517230862214568, -33.560392711554336 ], [ 26.517372928118142, -33.560545706918802 ], [ 26.517372995567388, -33.560545778864544 ], [ 26.518198619970367, -33.561434913390457 ], [ 26.519345040641117, -33.563013103072151 ], [ 26.520417018130914, -33.56353420264125 ], [ 26.520437063120049, -33.563529191618805 ], [ 26.521444231865875, -33.5632774003317 ], [ 26.521965430812809, -33.563147099774866 ], [ 26.521988967211506, -33.563132122104562 ], [ 26.523744273179727, -33.562015109209845 ], [ 26.523766948985937, -33.562000679119215 ], [ 26.524198717804058, -33.560898924203556 ], [ 26.524178995564217, -33.560842272752652 ], [ 26.523907278897894, -33.560061775430498 ], [ 26.524426676050293, -33.559793699219846 ], [ 26.53216036540854, -33.555802117673487 ], [ 26.541218749845484, -33.558846329094742 ], [ 26.541218789415698, -33.558846341685296 ], [ 26.541218912709517, -33.558846384372217 ], [ 26.542978863383869, -33.559455716907756 ] ] ] } }
]
}
