{
"type": "FeatureCollection",
"name": "kw_boundary",
"crs": { "type": "name", "properties": { "name": "urn:ogc:def:crs:OGC:1.3:CRS84" } },
"features": [
{ "type": "Feature", "properties": { "FID_KW": -1.0, "Id": 0.0, "FID_HV2023": 0.0, "Id_1": 0.0, "Shape_Leng": 0.52584632329600001, "Shape_Area": 0.0035684561549899998 }, "geometry": { "type": "MultiPolygon", "coordinates": [ [ [ [ 26.494014381558483, -33.58280903840641 ], [ 26.493798933673883, -33.587806337192653 ], [ 26.49396302667245, -33.583848089917375 ], [ 26.494014381558483, -33.58280903840641 ] ] ], [ [ [ 26.494247516409818, -33.577401516566681 ], [ 26.494234090431, -33.577712937402111 ], [ 26.494231650570242, -33.577585059203059 ], [ 26.494247516409818, -33.577401516566681 ] ] ], [ [ [ 26.495657002268867, -33.635932611300937 ], [ 26.495293101495442, -33.636079705314089 ], [ 26.495093064393448, -33.636153956939467 ], [ 26.494730122297337, -33.636307269764657 ], [ 26.495293101495442, -33.636079705314089 ], [ 26.495574765563067, -33.63597515462962 ], [ 26.495657002268867, -33.635932611300937 ], [ 26.496081796138014, -33.635875377546583 ], [ 26.496214379590054, -33.635875378445952 ], [ 26.496816569229363, -33.635679316347307 ], [ 26.497661651364211, -33.635404173263964 ], [ 26.498503087647439, -33.635033941263352 ], [ 26.49872355105115, -33.6345930153553 ], [ 26.49877234826533, -33.634495421826223 ], [ 26.49954647029341, -33.634024216644235 ], [ 26.499883045166449, -33.633620326616679 ], [ 26.5005898520401, -33.633889586335293 ], [ 26.501902494404682, -33.634731023517887 ], [ 26.502541986123816, -33.635067598390926 ], [ 26.502844903869281, -33.635370516136391 ], [ 26.502878560996855, -33.635909035573526 ], [ 26.502878560996855, -33.636447555909939 ], [ 26.502898377558136, -33.636458312700952 ], [ 26.502897789401501, -33.636493193805798 ], [ 26.503247531248629, -33.636668602973614 ], [ 26.503518763180388, -33.636841238632179 ], [ 26.503843894180378, -33.636971592664814 ], [ 26.504056573052491, -33.637087046729789 ], [ 26.504288930889551, -33.637087046729789 ], [ 26.504898010234999, -33.637322650220106 ], [ 26.507455978910365, -33.637087047629073 ], [ 26.509239825557561, -33.636649500474029 ], [ 26.516678129891812, -33.634529078953797 ], [ 26.521045188284852, -33.633292166700109 ], [ 26.524095397284807, -33.632345549307637 ], [ 26.528092223677234, -33.628453903125084 ], [ 26.529196610035598, -33.627507286631982 ], [ 26.529406969556067, -33.626981388280356 ], [ 26.528092223677234, -33.626087361442551 ], [ 26.52640934931204, -33.625877001922085 ], [ 26.52640934931204, -33.625140744949363 ], [ 26.528144813332531, -33.625140744949363 ], [ 26.529932867008231, -33.624351897422059 ], [ 26.530563944670359, -33.623615639550145 ], [ 26.530563944670359, -33.62203794539483 ], [ 26.530458765359853, -33.62103873924643 ], [ 26.529249199690895, -33.62003953219866 ], [ 26.52719819683934, -33.619461044191738 ], [ 26.526724888143104, -33.618514427698635 ], [ 26.527671505535576, -33.617041912853914 ], [ 26.528092223677234, -33.616884142988738 ], [ 26.529249199690895, -33.616673784367642 ], [ 26.531826100893895, -33.617199681819805 ], [ 26.533982283055956, -33.616936732644035 ], [ 26.536611773914252, -33.617515220650866 ], [ 26.538505007799916, -33.616778963678236 ], [ 26.538873136286277, -33.616516014502466 ], [ 26.539767163124083, -33.616726374022939 ], [ 26.54018788216511, -33.61725227237438 ], [ 26.57897615912249, -33.606454924654997 ], [ 26.56138235231381, -33.585325766870618 ], [ 26.561435290905987, -33.584699326112947 ], [ 26.561025517513613, -33.584452013449621 ], [ 26.560793108415247, -33.584371282208821 ], [ 26.560675681237754, -33.58426364055456 ], [ 26.560590056785781, -33.583904017856099 ], [ 26.560565472918306, -33.583868744646765 ], [ 26.560536333085359, -33.583822031161773 ], [ 26.561527350007218, -33.577923212386288 ], [ 26.563684755247362, -33.565081712850734 ], [ 26.564169345938669, -33.565197109359083 ], [ 26.564805057807238, -33.565350993253688 ], [ 26.565436434044308, -33.565467981562065 ], [ 26.566192748596539, -33.565583063307621 ], [ 26.56684857110475, -33.56565784733175 ], [ 26.573518349891977, -33.566136937769471 ], [ 26.575272542294069, -33.566265044396197 ], [ 26.575929142715836, -33.566337528853836 ], [ 26.576527578584962, -33.56643370325277 ], [ 26.577123238246912, -33.566569714920384 ], [ 26.577099853175788, -33.566462255828448 ], [ 26.579297503976683, -33.567223379954932 ], [ 26.581556225039847, -33.567366453998567 ], [ 26.581470266939299, -33.567503384773282 ], [ 26.581807027971958, -33.567550863581459 ], [ 26.582531046070944, -33.567671865564115 ], [ 26.587045338771397, -33.568537835352792 ], [ 26.587143000649004, -33.568582467806614 ], [ 26.58770999981671, -33.568772999973902 ], [ 26.589818999946978, -33.569181999949301 ], [ 26.590365999990993, -33.569290000433142 ], [ 26.590905999712199, -33.569404000294341 ], [ 26.591255999664686, -33.569494999994205 ], [ 26.591759000377678, -33.569643999670802 ], [ 26.592241000122062, -33.56980800003911 ], [ 26.592711000212553, -33.569998999853915 ], [ 26.593329999979552, -33.570270999806787 ], [ 26.593641999978367, -33.570406999783224 ], [ 26.594277999630066, -33.570657999666949 ], [ 26.594938000388467, -33.570833999689327 ], [ 26.595771000131606, -33.570942000173169 ], [ 26.59627900017577, -33.570947999550434 ], [ 26.596780999943213, -33.570916999919568 ], [ 26.597433000332714, -33.570871999642996 ], [ 26.5982340003989, -33.570894999804331 ], [ 26.599046000072889, -33.570994999919272 ], [ 26.599529999909631, -33.57110799973438 ], [ 26.600164000368341, -33.571310000056449 ], [ 26.600614999582582, -33.571505000055616 ], [ 26.600901000181075, -33.571652999686123 ], [ 26.601451000363451, -33.571985999753998 ], [ 26.601843999600959, -33.572279999822115 ], [ 26.602329000383161, -33.572722999566736 ], [ 26.602745999828091, -33.573215999818466 ], [ 26.603075999757607, -33.573731000185532 ], [ 26.603213999826224, -33.574 ], [ 26.603327999687508, -33.574272999998918 ], [ 26.603422999571823, -33.574553000320691 ], [ 26.603539999571378, -33.574988999742502 ], [ 26.603609000055371, -33.575433999579388 ], [ 26.603654000331943, -33.576344000175425 ], [ 26.603699999755236, -33.577300000194747 ], [ 26.60378199993939, -33.579041000441741 ], [ 26.603840999962213, -33.58017399963034 ], [ 26.603888000330965, -33.581897999992634 ], [ 26.603835999731672, -33.58247499962151 ], [ 26.603538000378478, -33.583729999939486 ], [ 26.603078999895967, -33.584860999935103 ], [ 26.602615966853392, -33.58624197278877 ], [ 26.602256630139408, -33.587065187908046 ], [ 26.601939307952748, -33.587855661409634 ], [ 26.601674856909106, -33.588550493810224 ], [ 26.601583320314003, -33.589059169245246 ], [ 26.601671971884087, -33.589696542161647 ], [ 26.601885920598832, -33.590136512090311 ], [ 26.602211246751693, -33.590621229586056 ], [ 26.602676536193247, -33.591162035099757 ], [ 26.602869450664667, -33.591386258568974 ], [ 26.603155170674629, -33.592196825622985 ], [ 26.603190310784296, -33.592569880595498 ], [ 26.603222230421629, -33.592908732551948 ], [ 26.603295356995226, -33.593343308346938 ], [ 26.603355801329208, -33.593702515558647 ], [ 26.603425178629113, -33.594114805254009 ], [ 26.603574579403354, -33.594357160854223 ], [ 26.604283754191936, -33.595238440701451 ], [ 26.605269642280259, -33.596463586225504 ], [ 26.606871948181908, -33.598449753353428 ], [ 26.607334043231599, -33.599078517959143 ], [ 26.607919355294062, -33.599918307583735 ], [ 26.60807190099742, -33.600455151583922 ], [ 26.608114484795685, -33.600583206949437 ], [ 26.608296316921574, -33.601064138299293 ], [ 26.608347000014053, -33.601170000195253 ], [ 26.608369124235796, -33.60124261325597 ], [ 26.608457999736977, -33.601556000009317 ], [ 26.608508439113209, -33.601767980108129 ], [ 26.608570999552082, -33.602091000399263 ], [ 26.608591999621144, -33.602228000421881 ], [ 26.608604358104714, -33.602436063973158 ], [ 26.60863131708172, -33.602754422178819 ], [ 26.608638610583434, -33.603159998435132 ], [ 26.608635793007483, -33.603242999564749 ], [ 26.60856906870762, -33.603814673408387 ], [ 26.6085169997598, -33.604207999999154 ], [ 26.608474999621588, -33.604484000136473 ], [ 26.608413834930587, -33.60492050857458 ], [ 26.608362444970922, -33.605396802120609 ], [ 26.608355000383042, -33.605862999877537 ], [ 26.608372000267654, -33.606149999622751 ], [ 26.608410000221415, -33.606434000128978 ], [ 26.608568000313003, -33.607091999895829 ], [ 26.608677999989748, -33.607440999802222 ], [ 26.608861000334937, -33.607878000169492 ], [ 26.609500000124996, -33.609377000048475 ], [ 26.610162000076297, -33.610966999627315 ], [ 26.610663999843741, -33.612179999807083 ], [ 26.611188999772605, -33.613440000355695 ], [ 26.611380999633504, -33.613914999777357 ], [ 26.611476000417188, -33.614155000053188 ], [ 26.611611000347445, -33.614521999890286 ], [ 26.611481653555501, -33.6147492441822 ], [ 26.611632146106722, -33.615188909240693 ], [ 26.611774056427638, -33.615958243278236 ], [ 26.611530141402927, -33.616059405317252 ], [ 26.609983241833245, -33.61670097087304 ], [ 26.609878398869068, -33.616627501657796 ], [ 26.609793540639469, -33.616652064840842 ], [ 26.609807106912552, -33.616776879948958 ], [ 26.60813461701904, -33.617808523744323 ], [ 26.604682506392617, -33.619715633269827 ], [ 26.604093761617818, -33.620040883879646 ], [ 26.603395795079919, -33.620297132206829 ], [ 26.602775524570831, -33.62052485583736 ], [ 26.602274057202045, -33.620819433270206 ], [ 26.601820082131177, -33.621188170597542 ], [ 26.601470554322702, -33.621296952592246 ], [ 26.601046353106771, -33.621313860746056 ], [ 26.599423216208461, -33.620837870271465 ], [ 26.597863551661614, -33.620876270423501 ], [ 26.597515227146072, -33.620794108361366 ], [ 26.597156542440491, -33.62049705059836 ], [ 26.596480591306314, -33.619627954766258 ], [ 26.595710271611793, -33.615769653646595 ], [ 26.587644552554078, -33.618018962405131 ], [ 26.587165792167632, -33.617202437342549 ], [ 26.5837507686831, -33.61617588640798 ], [ 26.58391706591997, -33.621813335217169 ], [ 26.584332312586177, -33.623066224826388 ], [ 26.584768678931457, -33.624048350151185 ], [ 26.58509111016668, -33.62409344305793 ], [ 26.586070892757562, -33.625642277069375 ], [ 26.585598627274841, -33.626127259865072 ], [ 26.585133484422872, -33.626604930273281 ], [ 26.584326564119674, -33.627191523869641 ], [ 26.58426790943652, -33.627260652057437 ], [ 26.583578929823869, -33.627433645646228 ], [ 26.582800255427529, -33.627448395427088 ], [ 26.581828468708878, -33.627338927249632 ], [ 26.581000790254304, -33.627468792051033 ], [ 26.579500514237374, -33.628216888598502 ], [ 26.578629142221232, -33.628653004032842 ], [ 26.577721771242789, -33.629107135585826 ], [ 26.577354072632385, -33.629218996859137 ], [ 26.575663407440363, -33.629837462428917 ], [ 26.574426380972703, -33.629791917163139 ], [ 26.573696621601904, -33.629965953066247 ], [ 26.573426899631812, -33.63014932573077 ], [ 26.572899176555818, -33.630826098845297 ], [ 26.572787745158376, -33.630878199269446 ], [ 26.572570379919146, -33.631120298562863 ], [ 26.572135310396337, -33.631416223180118 ], [ 26.571797091562598, -33.631514526274316 ], [ 26.571190628344908, -33.631936255253962 ], [ 26.57113711688449, -33.631874080624343 ], [ 26.571094932385307, -33.631899748174824 ], [ 26.571142788009304, -33.631969457324566 ], [ 26.57075501023559, -33.632253108893821 ], [ 26.570751125164392, -33.63225846525593 ], [ 26.570728038668122, -33.632317139724151 ], [ 26.57071193540753, -33.632293987577462 ], [ 26.570550631206778, -33.632415487784513 ], [ 26.568387935255032, -33.638420101006801 ], [ 26.568200526433237, -33.638415136749174 ], [ 26.568074912727045, -33.638332153605973 ], [ 26.568043017371355, -33.638365353877923 ], [ 26.568158662092621, -33.638448337021124 ], [ 26.568128758735231, -33.638473236550588 ], [ 26.568312202446208, -33.638664106863033 ], [ 26.56787596290545, -33.639936221279505 ], [ 26.567175857779667, -33.640590373746718 ], [ 26.566492787612127, -33.640906718370374 ], [ 26.56621665797244, -33.640423369642754 ], [ 26.565847408930875, -33.63976446156061 ], [ 26.565860244055038, -33.639271082694314 ], [ 26.565452559787804, -33.638832241414732 ], [ 26.564855903677064, -33.638577312393018 ], [ 26.564643839041967, -33.638374663659761 ], [ 26.564555333162186, -33.638047928269195 ], [ 26.564363609393148, -33.637805966572024 ], [ 26.563803239128202, -33.637313057151815 ], [ 26.563206972423835, -33.637040358425722 ], [ 26.562838443739199, -33.63682379538178 ], [ 26.562273550783765, -33.636328990190648 ], [ 26.561549403182504, -33.635596445619427 ], [ 26.561406730236424, -33.635454999348731 ], [ 26.560187231555542, -33.634245990360071 ], [ 26.559582596659524, -33.633689238967172 ], [ 26.559211194640962, -33.633409263826415 ], [ 26.55889104138852, -33.633140993362169 ], [ 26.55843295821446, -33.63282463704725 ], [ 26.558107743577551, -33.63265380542871 ], [ 26.557740770720027, -33.632591798972292 ], [ 26.557258011048411, -33.632686706226437 ], [ 26.556951778401881, -33.632797747318136 ], [ 26.556515206111918, -33.632909104071913 ], [ 26.556322861810632, -33.632998633380147 ], [ 26.55618182293281, -33.633068286772001 ], [ 26.556091573267558, -33.633112843682696 ], [ 26.555842000607864, -33.633236217177583 ], [ 26.555645859368969, -33.633471585944903 ], [ 26.555485151418644, -33.633728150833434 ], [ 26.555108686216965, -33.634408316190807 ], [ 26.555000347588052, -33.634845570166853 ], [ 26.5548783788342, -33.635249824419773 ], [ 26.554730956568427, -33.635541820798316 ], [ 26.554641584641413, -33.635637496972855 ], [ 26.554327286874845, -33.635973963927242 ], [ 26.55408589804583, -33.63622977788188 ], [ 26.55443564888612, -33.636671365690958 ], [ 26.554459730032619, -33.636698378627202 ], [ 26.554635954885462, -33.63688837659727 ], [ 26.554939198185444, -33.636585134196565 ], [ 26.555330104700602, -33.636194227681408 ], [ 26.555388696431269, -33.635779370421574 ], [ 26.556226574996554, -33.634756908704325 ], [ 26.557047861969295, -33.634163757251571 ], [ 26.559039830623764, -33.634237687819017 ], [ 26.559530076252123, -33.634888449842045 ], [ 26.560199829258778, -33.635661080794151 ], [ 26.560528932564274, -33.636004357415146 ], [ 26.560841764435882, -33.63621850937664 ], [ 26.563827312180731, -33.638195227327834 ], [ 26.564994657377593, -33.640122082368158 ], [ 26.565099662219659, -33.641184128644589 ], [ 26.562349701777364, -33.641454957680054 ], [ 26.56213411899445, -33.641488780282906 ], [ 26.558392915900374, -33.64191452563486 ], [ 26.557730360168051, -33.642089870051358 ], [ 26.557181281790708, -33.642392848051465 ], [ 26.556812118184801, -33.642564232753095 ], [ 26.556616868173975, -33.642966062433828 ], [ 26.556321897737455, -33.643290093562953 ], [ 26.555926719442567, -33.643453022838713 ], [ 26.555062825289198, -33.643599594345737 ], [ 26.553796327138844, -33.644017468831059 ], [ 26.552903408265692, -33.644276476278286 ], [ 26.550147415171153, -33.645176051933227 ], [ 26.548949871639348, -33.645592200619582 ], [ 26.548155620985213, -33.64603449709432 ], [ 26.547393703656518, -33.646199032559217 ], [ 26.546678893716035, -33.646379493218966 ], [ 26.545744954965787, -33.646292110592405 ], [ 26.544496934286187, -33.646330767950523 ], [ 26.543750809052678, -33.646321774730133 ], [ 26.543329881369036, -33.646290606925881 ], [ 26.542715455553921, -33.646331256282387 ], [ 26.542303950067257, -33.64640642971289 ], [ 26.541841047426416, -33.646407847943841 ], [ 26.541507854004319, -33.6466538781739 ], [ 26.538090054312612, -33.643990508954772 ], [ 26.533129237424401, -33.645746697851749 ], [ 26.530559335644842, -33.645945402158532 ], [ 26.527277189690622, -33.647228433445349 ], [ 26.524588638554857, -33.644670649131129 ], [ 26.524739686887099, -33.643436599419466 ], [ 26.523769117850581, -33.643173709598976 ], [ 26.522288020775552, -33.643216096445634 ], [ 26.51965530225041, -33.643301094969495 ], [ 26.518954515438541, -33.643316708998853 ], [ 26.518981086807734, -33.64325913260285 ], [ 26.51887917743213, -33.643255988572925 ], [ 26.518862081320048, -33.64331404430763 ], [ 26.518869079844208, -33.643348142103065 ], [ 26.518349959682951, -33.643337202749642 ], [ 26.517494236769622, -33.643011647269645 ], [ 26.515992914841245, -33.644543431933819 ], [ 26.515116646915736, -33.644407723337729 ], [ 26.516174639048394, -33.642190874709058 ], [ 26.513781179757721, -33.641984438031351 ], [ 26.514512235051622, -33.640664553426362 ], [ 26.514363631976089, -33.640458541228661 ], [ 26.513952240703397, -33.640539096202289 ], [ 26.51352717523897, -33.640707779340502 ], [ 26.512904006214942, -33.6409508382106 ], [ 26.511397587828466, -33.641526176791551 ], [ 26.50954605011021, -33.642173641000646 ], [ 26.507548918447853, -33.642314589946317 ], [ 26.503790076051224, -33.64222750589461 ], [ 26.503864595674585, -33.641519568573223 ], [ 26.503894486441425, -33.640738149446044 ], [ 26.500795562065647, -33.640445092766761 ], [ 26.49810498835453, -33.640132578355704 ], [ 26.49653347434041, -33.639922759327774 ], [ 26.495171820722994, -33.639979724184869 ], [ 26.494774267318665, -33.640352560622148 ], [ 26.494408456385209, -33.640668019413503 ], [ 26.493685005758426, -33.641061525868658 ], [ 26.492277332033286, -33.64125416694624 ], [ 26.492298934648183, -33.641093492270805 ], [ 26.491397170043417, -33.639206316218491 ], [ 26.490369327682416, -33.638933466406321 ], [ 26.490423689901409, -33.638570645718694 ], [ 26.490581652221522, -33.637483011032117 ], [ 26.490590578892213, -33.637421546866804 ], [ 26.491143279738637, -33.633026390955138 ], [ 26.491170956374553, -33.632401227234794 ], [ 26.491535634162254, -33.629864756852974 ], [ 26.492090252363308, -33.627112056176415 ], [ 26.492477013903081, -33.618468079338378 ], [ 26.492108166858529, -33.627023460364306 ], [ 26.49060035991878, -33.637477589019412 ], [ 26.490593579929765, -33.637524594784203 ], [ 26.491450285802141, -33.637239025860318 ], [ 26.491502332266879, -33.637221677938015 ], [ 26.493050576323039, -33.637389965374538 ], [ 26.493824698351208, -33.636615843346455 ], [ 26.495657002268867, -33.635932611300937 ] ], [ [ 26.553690572262166, -33.635730646951785 ], [ 26.551048027744383, -33.632394218818099 ], [ 26.551194920309428, -33.633395386387924 ], [ 26.5515515149905, -33.634317096157055 ], [ 26.551575799383663, -33.634885481180014 ], [ 26.553690572262166, -33.635730646951785 ] ] ], [ [ [ 26.521965431259652, -33.563147100258476 ], [ 26.521444231865875, -33.5632774003317 ], [ 26.521988967416942, -33.563132122049758 ], [ 26.521965431259652, -33.563147100258476 ] ] ], [ [ [ 26.504487168448097, -33.563744504605182 ], [ 26.503744394088567, -33.564903958250987 ], [ 26.504447532627605, -33.563721571893005 ], [ 26.505545687583464, -33.562662940342321 ], [ 26.506379512004884, -33.562256534011773 ], [ 26.505557285240609, -33.56267438781267 ], [ 26.504487168448097, -33.563744504605182 ] ] ], [ [ [ 26.523766949585102, -33.562000679587641 ], [ 26.523744273179727, -33.562015109209845 ], [ 26.52418593293454, -33.560874759862273 ], [ 26.524178995564217, -33.560842272752652 ], [ 26.524198717696677, -33.560898924645606 ], [ 26.523766949585102, -33.562000679587641 ] ] ], [ [ [ 26.516469422425924, -33.560167034780804 ], [ 26.517117730199079, -33.56036194484782 ], [ 26.516467822532018, -33.560185202884803 ], [ 26.514964628215086, -33.560140991313595 ], [ 26.516469422425924, -33.560167034780804 ] ] ] ] } }
]
}
